CCSDS_OMM_VERS = 2.0
CREATION_DATE  = 
ORIGINATOR     = 

OBJECT_NAME    = STARLINK-36993
OBJECT_ID      = 2026-039J
CENTER_NAME    = EARTH
REF_FRAME      = TEME
TIME_SYSTEM    = UTC
MEAN_ELEMENT_THEORY = SGP/SGP4

EPOCH          = 2026-03-19T16:00:01.999584
MEAN_MOTION    = 15.60817294
ECCENTRICITY   = .0001303
INCLINATION    = 42.9996
RA_OF_ASC_NODE = 354.1874
ARG_OF_PERICENTER = 248.0279
MEAN_ANOMALY   = 9.7157

EPHEMERIS_TYPE = 0
CLASSIFICATION_TYPE = U
NORAD_CAT_ID   = 67994
ELEMENT_SET_NO = 999
REV_AT_EPOCH   = 448
BSTAR          = -.24374E-1
MEAN_MOTION_DOT = -.1853431E-1
MEAN_MOTION_DDOT = 0

CCSDS_OMM_VERS = 2.0
CREATION_DATE  = 
ORIGINATOR     = 

OBJECT_NAME    = STARLINK-36968
OBJECT_ID      = 2026-039K
CENTER_NAME    = EARTH
REF_FRAME      = TEME
TIME_SYSTEM    = UTC
MEAN_ELEMENT_THEORY = SGP/SGP4

EPOCH          = 2026-03-19T16:00:01.999584
MEAN_MOTION    = 15.50519571
ECCENTRICITY   = .000167
INCLINATION    = 43.0000
RA_OF_ASC_NODE = 354.9842
ARG_OF_PERICENTER = 258.8955
MEAN_ANOMALY   = 36.3969

EPHEMERIS_TYPE = 0
CLASSIFICATION_TYPE = U
NORAD_CAT_ID   = 67995
ELEMENT_SET_NO = 999
REV_AT_EPOCH   = 448
BSTAR          = .13855E-2
MEAN_MOTION_DOT = .8162E-3
MEAN_MOTION_DDOT = 0

CCSDS_OMM_VERS = 2.0
CREATION_DATE  = 
ORIGINATOR     = 

OBJECT_NAME    = STARLINK-36979
OBJECT_ID      = 2026-039L
CENTER_NAME    = EARTH
REF_FRAME      = TEME
TIME_SYSTEM    = UTC
MEAN_ELEMENT_THEORY = SGP/SGP4

EPOCH          = 2026-03-19T16:00:01.999584
MEAN_MOTION    = 15.62417719
ECCENTRICITY   = .0001687
INCLINATION    = 43.0001
RA_OF_ASC_NODE = 354.1063
ARG_OF_PERICENTER = 251.8560
MEAN_ANOMALY   = 37.9520

EPHEMERIS_TYPE = 0
CLASSIFICATION_TYPE = U
NORAD_CAT_ID   = 67996
ELEMENT_SET_NO = 999
REV_AT_EPOCH   = 448
BSTAR          = -.23381E-1
MEAN_MOTION_DOT = -.1888785E-1
MEAN_MOTION_DDOT = 0

CCSDS_OMM_VERS = 2.0
CREATION_DATE  = 
ORIGINATOR     = 

OBJECT_NAME    = STARLINK-36994
OBJECT_ID      = 2026-039M
CENTER_NAME    = EARTH
REF_FRAME      = TEME
TIME_SYSTEM    = UTC
MEAN_ELEMENT_THEORY = SGP/SGP4

EPOCH          = 2026-03-19T16:00:01.999584
MEAN_MOTION    = 15.56492185
ECCENTRICITY   = .0001263
INCLINATION    = 42.9996
RA_OF_ASC_NODE = 354.3596
ARG_OF_PERICENTER = 256.8014
MEAN_ANOMALY   = 290.9787

EPHEMERIS_TYPE = 0
CLASSIFICATION_TYPE = U
NORAD_CAT_ID   = 67997
ELEMENT_SET_NO = 999
REV_AT_EPOCH   = 448
BSTAR          = -.28973E-1
MEAN_MOTION_DOT = -.1865383E-1
MEAN_MOTION_DDOT = 0

CCSDS_OMM_VERS = 2.0
CREATION_DATE  = 
ORIGINATOR     = 

OBJECT_NAME    = STARLINK-36988
OBJECT_ID      = 2026-039N
CENTER_NAME    = EARTH
REF_FRAME      = TEME
TIME_SYSTEM    = UTC
MEAN_ELEMENT_THEORY = SGP/SGP4

EPOCH          = 2026-03-19T16:00:01.999584
MEAN_MOTION    = 15.57533811
ECCENTRICITY   = .0001335
INCLINATION    = 42.9996
RA_OF_ASC_NODE = 354.3151
ARG_OF_PERICENTER = 258.0317
MEAN_ANOMALY   = 307.7393

EPHEMERIS_TYPE = 0
CLASSIFICATION_TYPE = U
NORAD_CAT_ID   = 67998
ELEMENT_SET_NO = 999
REV_AT_EPOCH   = 448
BSTAR          = -.2796E-1
MEAN_MOTION_DOT = -.1871653E-1
MEAN_MOTION_DDOT = 0

CCSDS_OMM_VERS = 2.0
CREATION_DATE  = 
ORIGINATOR     = 

OBJECT_NAME    = STARLINK-36926
OBJECT_ID      = 2026-039P
CENTER_NAME    = EARTH
REF_FRAME      = TEME
TIME_SYSTEM    = UTC
MEAN_ELEMENT_THEORY = SGP/SGP4

EPOCH          = 2026-03-19T16:00:01.999584
MEAN_MOTION    = 15.56681590
ECCENTRICITY   = .0001231
INCLINATION    = 42.9998
RA_OF_ASC_NODE = 354.3385
ARG_OF_PERICENTER = 258.2938
MEAN_ANOMALY   = 297.8456

EPHEMERIS_TYPE = 0
CLASSIFICATION_TYPE = U
NORAD_CAT_ID   = 67999
ELEMENT_SET_NO = 999
REV_AT_EPOCH   = 448
BSTAR          = -.28815E-1
MEAN_MOTION_DOT = -.1868125E-1
MEAN_MOTION_DDOT = 0

CCSDS_OMM_VERS = 2.0
CREATION_DATE  = 
ORIGINATOR     = 

OBJECT_NAME    = STARLINK-36931
OBJECT_ID      = 2026-039Q
CENTER_NAME    = EARTH
REF_FRAME      = TEME
TIME_SYSTEM    = UTC
MEAN_ELEMENT_THEORY = SGP/SGP4

EPOCH          = 2026-03-19T16:00:01.999584
MEAN_MOTION    = 15.60724046
ECCENTRICITY   = .0001409
INCLINATION    = 42.9996
RA_OF_ASC_NODE = 354.1273
ARG_OF_PERICENTER = 250.2787
MEAN_ANOMALY   = 31.4250

EPHEMERIS_TYPE = 0
CLASSIFICATION_TYPE = U
NORAD_CAT_ID   = 68000
ELEMENT_SET_NO = 999
REV_AT_EPOCH   = 448
BSTAR          = -.24453E-1
MEAN_MOTION_DOT = -.1852826E-1
MEAN_MOTION_DDOT = 0

CCSDS_OMM_VERS = 2.0
CREATION_DATE  = 
ORIGINATOR     = 

OBJECT_NAME    = STARLINK-36903
OBJECT_ID      = 2026-039R
CENTER_NAME    = EARTH
REF_FRAME      = TEME
TIME_SYSTEM    = UTC
MEAN_ELEMENT_THEORY = SGP/SGP4

EPOCH          = 2026-03-19T16:00:01.999584
MEAN_MOTION    = 15.56565631
ECCENTRICITY   = .0001253
INCLINATION    = 43.0003
RA_OF_ASC_NODE = 354.3235
ARG_OF_PERICENTER = 254.9820
MEAN_ANOMALY   = 307.1921

EPHEMERIS_TYPE = 0
CLASSIFICATION_TYPE = U
NORAD_CAT_ID   = 68001
ELEMENT_SET_NO = 999
REV_AT_EPOCH   = 448
BSTAR          = -.28896E-1
MEAN_MOTION_DOT = -.1865544E-1
MEAN_MOTION_DDOT = 0

CCSDS_OMM_VERS = 2.0
CREATION_DATE  = 
ORIGINATOR     = 

OBJECT_NAME    = STARLINK-36898
OBJECT_ID      = 2026-039S
CENTER_NAME    = EARTH
REF_FRAME      = TEME
TIME_SYSTEM    = UTC
MEAN_ELEMENT_THEORY = SGP/SGP4

EPOCH          = 2026-03-19T16:00:01.999584
MEAN_MOTION    = 15.59613693
ECCENTRICITY   = .000141
INCLINATION    = 42.9995
RA_OF_ASC_NODE = 354.1465
ARG_OF_PERICENTER = 247.0577
MEAN_ANOMALY   = 26.4668

EPHEMERIS_TYPE = 0
CLASSIFICATION_TYPE = U
NORAD_CAT_ID   = 68002
ELEMENT_SET_NO = 999
REV_AT_EPOCH   = 448
BSTAR          = -.25606E-1
MEAN_MOTION_DOT = -.1857898E-1
MEAN_MOTION_DDOT = 0

CCSDS_OMM_VERS = 2.0
CREATION_DATE  = 
ORIGINATOR     = 

OBJECT_NAME    = STARLINK-36862
OBJECT_ID      = 2026-039T
CENTER_NAME    = EARTH
REF_FRAME      = TEME
TIME_SYSTEM    = UTC
MEAN_ELEMENT_THEORY = SGP/SGP4

EPOCH          = 2026-03-19T16:00:01.999584
MEAN_MOTION    = 15.57483930
ECCENTRICITY   = .0001247
INCLINATION    = 42.9994
RA_OF_ASC_NODE = 354.2314
ARG_OF_PERICENTER = 248.6088
MEAN_ANOMALY   = 350.5007

EPHEMERIS_TYPE = 0
CLASSIFICATION_TYPE = U
NORAD_CAT_ID   = 68003
ELEMENT_SET_NO = 999
REV_AT_EPOCH   = 448
BSTAR          = -.2773E-1
MEAN_MOTION_DOT = -.185486E-1
MEAN_MOTION_DDOT = 0

CCSDS_OMM_VERS = 2.0
CREATION_DATE  = 
ORIGINATOR     = 

OBJECT_NAME    = STARLINK-36888
OBJECT_ID      = 2026-039U
CENTER_NAME    = EARTH
REF_FRAME      = TEME
TIME_SYSTEM    = UTC
MEAN_ELEMENT_THEORY = SGP/SGP4

EPOCH          = 2026-03-19T16:00:01.999584
MEAN_MOTION    = 15.57161526
ECCENTRICITY   = .0001354
INCLINATION    = 43.0000
RA_OF_ASC_NODE = 354.2810
ARG_OF_PERICENTER = 249.8513
MEAN_ANOMALY   = 329.4617

EPHEMERIS_TYPE = 0
CLASSIFICATION_TYPE = U
NORAD_CAT_ID   = 68004
ELEMENT_SET_NO = 999
REV_AT_EPOCH   = 448
BSTAR          = -.28266E-1
MEAN_MOTION_DOT = -.1866328E-1
MEAN_MOTION_DDOT = 0

CCSDS_OMM_VERS = 2.0
CREATION_DATE  = 
ORIGINATOR     = 

OBJECT_NAME    = STARLINK-36910
OBJECT_ID      = 2026-039V
CENTER_NAME    = EARTH
REF_FRAME      = TEME
TIME_SYSTEM    = UTC
MEAN_ELEMENT_THEORY = SGP/SGP4

EPOCH          = 2026-03-19T16:00:01.999584
MEAN_MOTION    = 15.60788577
ECCENTRICITY   = .0001437
INCLINATION    = 42.9994
RA_OF_ASC_NODE = 354.0808
ARG_OF_PERICENTER = 247.4020
MEAN_ANOMALY   = 52.4936

EPHEMERIS_TYPE = 0
CLASSIFICATION_TYPE = U
NORAD_CAT_ID   = 68005
ELEMENT_SET_NO = 999
REV_AT_EPOCH   = 448
BSTAR          = -.24481E-1
MEAN_MOTION_DOT = -.1858906E-1
MEAN_MOTION_DDOT = 0

