STARLINK-36993          
1 67994U 26039J   26078.66668981 -.01853431  00000+0 -24374-1 0  9995
2 67994  42.9996 354.1874 0001303 248.0279   9.7157 15.60817294  4485
STARLINK-36968          
1 67995U 26039K   26078.66668981  .00081620  00000+0  13855-2 0  9999
2 67995  43.0000 354.9842 0001670 258.8955  36.3969 15.50519571  4487
STARLINK-36979          
1 67996U 26039L   26078.66668981 -.01888785  00000+0 -23381-1 0  9994
2 67996  43.0001 354.1063 0001687 251.8560  37.9520 15.62417719  4483
STARLINK-36994          
1 67997U 26039M   26078.66668981 -.01865383  00000+0 -28973-1 0  9996
2 67997  42.9996 354.3596 0001263 256.8014 290.9787 15.56492185  4486
STARLINK-36988          
1 67998U 26039N   26078.66668981 -.01871653  00000+0 -27960-1 0  9999
2 67998  42.9996 354.3151 0001335 258.0317 307.7393 15.57533811  4487
STARLINK-36926          
1 67999U 26039P   26078.66668981 -.01868125  00000+0 -28815-1 0  9990
2 67999  42.9998 354.3385 0001231 258.2938 297.8456 15.56681590  4481
STARLINK-36931          
1 68000U 26039Q   26078.66668981 -.01852826  00000+0 -24453-1 0  9999
2 68000  42.9996 354.1273 0001409 250.2787  31.4250 15.60724046  4481
STARLINK-36903          
1 68001U 26039R   26078.66668981 -.01865544  00000+0 -28896-1 0  9996
2 68001  43.0003 354.3235 0001253 254.9820 307.1921 15.56565631  4485
STARLINK-36898          
1 68002U 26039S   26078.66668981 -.01857898  00000+0 -25606-1 0  9996
2 68002  42.9995 354.1465 0001410 247.0577  26.4668 15.59613693  4488
STARLINK-36862          
1 68003U 26039T   26078.66668981 -.01854860  00000+0 -27730-1 0  9993
2 68003  42.9994 354.2314 0001247 248.6088 350.5007 15.57483930  4489
STARLINK-36888          
1 68004U 26039U   26078.66668981 -.01866328  00000+0 -28266-1 0  9991
2 68004  43.0000 354.2810 0001354 249.8513 329.4617 15.57161526  4482
STARLINK-36910          
1 68005U 26039V   26078.66668981 -.01858906  00000+0 -24481-1 0  9990
2 68005  42.9994 354.0808 0001437 247.4020  52.4936 15.60788577  4489
